STARLETTE               
1 07646U 75010A   26115.89534514 -.00000123  00000+0  13485-4 0  9991
2 07646  49.8254 310.9995 0205659 250.2855 107.5749 13.82349656587300
LAGEOS 1                
1 08820U 76039A   26115.85389512  .00000005  00000+0  00000+0 0  9992
2 08820 109.8066 161.4287 0044671 313.4889 231.6959  6.38664737909796
AJISAI (EGS)            
1 16908U 86061A   26115.95602755 -.00000078  00000+0  13689-3 0  9994
2 16908  50.0099 308.0065 0011426  48.2152 111.0255 12.44515986473887
COSMOS 1989 (ETALON 1)  
1 19751U 89001C   26115.45581148  .00000012  00000+0  00000+0 0  9993
2 19751  64.9169  73.9978 0023356 217.6733 323.3879  2.13155928290249
COSMOS 2024 (ETALON 2)  
1 20026U 89039C   26115.47836080 -.00000021  00000+0  00000+0 0  9992
2 20026  64.9670 312.3514 0020536 212.8483 133.9818  2.13204542287370
LAGEOS 2                
1 22195U 92070B   26111.22194309 -.00000009  00000+0  00000+0 0  9996
2 22195  52.6637 302.6665 0137668 162.3866 358.4562  6.47293633791734
STELLA                  
1 22824U 93061B   26115.90720314 -.00000046  00000+0 -41142-6 0  9997
2 22824  98.7758 179.9618 0006991  37.4340  50.3844 14.27468894697314
LARETS                  
1 27944U 03042F   26115.96227721  .00000059  00000+0  20936-4 0  9993
2 27944  98.4100 277.0874 0011935 193.6472 166.4408 14.63859358205723
LARES                   
1 38077U 12006A   26115.92715138 -.00000039  00000+0 -46051-5 0  9999
2 38077  69.4930  21.5108 0006360  91.7053 268.4702 12.54931947650516
LARES-2                 
1 53105U 22080A   26114.95312861 -.00000010  00000+0  00000+0 0  9995
2 53105  70.1721 323.5864 0005358 346.5295  13.5246  6.38965121 88266
